{
  "type": "FeatureCollection",
  "features": [
    {
      "type": "Feature",
      "properties": {
        "norad_id": 40894,
        "name": "GAOFEN-9 01",
        "group": "resource",
        "lat": -62.83049352950012,
        "lon": -171.6555307374365,
        "alt_km": 647.4143080508966,
        "timestamp": "2025-12-10T11:33:53.048595+00:00",
        "meta_object_name": "GAOFEN-9 01",
        "meta_object_id": "2015-047A",
        "meta_epoch": "2025-12-10T03:59:19.447584",
        "meta_mean_motion": 14.82411374,
        "meta_eccentricity": 0.0028579,
        "meta_inclination": 97.6545,
        "meta_ra_of_asc_node": 23.2328,
        "meta_arg_of_pericenter": 42.4224,
        "meta_mean_anomaly": 317.9192,
        "meta_ephemeris_type": 0,
        "meta_classification_type": "U",
        "meta_norad_cat_id": 40894,
        "meta_element_set_no": 999,
        "meta_rev_at_epoch": 55218,
        "meta_bstar": 0.00022099,
        "meta_mean_motion_dot": 1.732e-05,
        "meta_mean_motion_ddot": 0,
        "tle_line1": "1 40894U 15047A   25344.16619731  .00001732  00000+0  22099-3 0  9991",
        "tle_line2": "2 40894  97.6545  23.2328 0028579  42.4224 317.9192 14.82411374552180"
      },
      "geometry": {
        "type": "Point",
        "coordinates": [
          -171.6555307374365,
          -62.83049352950012
        ]
      }
    },
    {
      "type": "Feature",
      "properties": {
        "norad_id": 41026,
        "name": "YAOGAN-28",
        "group": "resource",
        "lat": 54.381300280544735,
        "lon": 112.05819773252392,
        "alt_km": 486.0957504378939,
        "timestamp": "2025-12-10T11:33:53.048605+00:00",
        "meta_object_name": "YAOGAN-28",
        "meta_object_id": "2015-064A",
        "meta_epoch": "2025-12-10T05:01:18.780096",
        "meta_mean_motion": 15.24283161,
        "meta_eccentricity": 0.0012258,
        "meta_inclination": 97.2807,
        "meta_ra_of_asc_node": 122.0732,
        "meta_arg_of_pericenter": 134.3106,
        "meta_mean_anomaly": 225.9139,
        "meta_ephemeris_type": 0,
        "meta_classification_type": "U",
        "meta_norad_cat_id": 41026,
        "meta_element_set_no": 999,
        "meta_rev_at_epoch": 56186,
        "meta_bstar": 0.000545,
        "meta_mean_motion_dot": 0.00013282,
        "meta_mean_motion_ddot": 0,
        "tle_line1": "1 41026U 15064A   25344.20924514  .00013282  00000+0  54500-3 0  9996",
        "tle_line2": "2 41026  97.2807 122.0732 0012258 134.3106 225.9139 15.24283161561861"
      },
      "geometry": {
        "type": "Point",
        "coordinates": [
          112.05819773252392,
          54.381300280544735
        ]
      }
    },
    {
      "type": "Feature",
      "properties": {
        "norad_id": 41038,
        "name": "YAOGAN-29",
        "group": "resource",
        "lat": 51.283933535990315,
        "lon": -162.22133236016634,
        "alt_km": 615.7147243891732,
        "timestamp": "2025-12-10T11:33:53.048615+00:00",
        "meta_object_name": "YAOGAN-29",
        "meta_object_id": "2015-069A",
        "meta_epoch": "2025-12-10T04:30:42.985728",
        "meta_mean_motion": 14.8287852,
        "meta_eccentricity": 3.69e-05,
        "meta_inclination": 98.0219,
        "meta_ra_of_asc_node": 7.3512,
        "meta_arg_of_pericenter": 351.0679,
        "meta_mean_anomaly": 9.0527,
        "meta_ephemeris_type": 0,
        "meta_classification_type": "U",
        "meta_norad_cat_id": 41038,
        "meta_element_set_no": 999,
        "meta_rev_at_epoch": 54261,
        "meta_bstar": 9.2522e-05,
        "meta_mean_motion_dot": 6.95e-06,
        "meta_mean_motion_ddot": 0,
        "tle_line1": "1 41038U 15069A   25344.18799752  .00000695  00000+0  92522-4 0  9996",
        "tle_line2": "2 41038  98.0219   7.3512 0000369 351.0679   9.0527 14.82878520542610"
      },
      "geometry": {
        "type": "Point",
        "coordinates": [
          -162.22133236016634,
          51.283933535990315
        ]
      }
    },
    {
      "type": "Feature",
      "properties": {
        "norad_id": 41167,
        "name": "KENT RIDGE 1",
        "group": "resource",
        "lat": 4.186447349929069,
        "lon": -116.21002850697388,
        "alt_km": 496.8590631892657,
        "timestamp": "2025-12-10T11:33:53.048625+00:00",
        "meta_object_name": "KENT RIDGE 1",
        "meta_object_id": "2015-077B",
        "meta_epoch": "2025-12-09T22:54:25.386336",
        "meta_mean_motion": 15.21601282,
        "meta_eccentricity": 0.000855,
        "meta_inclination": 14.9787,
        "meta_ra_of_asc_node": 231.8092,
        "meta_arg_of_pericenter": 91.1625,
        "meta_mean_anomaly": 268.9676,
        "meta_ephemeris_type": 0,
        "meta_classification_type": "U",
        "meta_norad_cat_id": 41167,
        "meta_element_set_no": 999,
        "meta_rev_at_epoch": 55221,
        "meta_bstar": 0.00024157,
        "meta_mean_motion_dot": 6.38e-05,
        "meta_mean_motion_ddot": 0,
        "tle_line1": "1 41167U 15077B   25343.95446049  .00006380  00000+0  24157-3 0  9995",
        "tle_line2": "2 41167  14.9787 231.8092 0008550  91.1625 268.9676 15.21601282552211"
      },
      "geometry": {
        "type": "Point",
        "coordinates": [
          -116.21002850697388,
          4.186447349929069
        ]
      }
    },
    {
      "type": "Feature",
      "properties": {
        "norad_id": 41194,
        "name": "GAOFEN-4",
        "group": "resource",
        "lat": -0.15635384871826288,
        "lon": -1.3658198238198973,
        "alt_km": 35801.47808165239,
        "timestamp": "2025-12-10T11:33:53.048637+00:00",
        "meta_object_name": "GAOFEN-4",
        "meta_object_id": "2015-083A",
        "meta_epoch": "2025-12-10T00:37:38.700768",
        "meta_mean_motion": 1.00270529,
        "meta_eccentricity": 0.0003605,
        "meta_inclination": 0.1638,
        "meta_ra_of_asc_node": 80.7414,
        "meta_arg_of_pericenter": 106.8899,
        "meta_mean_anomaly": 6.4925,
        "meta_ephemeris_type": 0,
        "meta_classification_type": "U",
        "meta_norad_cat_id": 41194,
        "meta_element_set_no": 999,
        "meta_rev_at_epoch": 3663,
        "meta_bstar": 0,
        "meta_mean_motion_dot": -3.32e-06,
        "meta_mean_motion_ddot": 0,
        "tle_line1": "1 41194U 15083A   25344.02614237 -.00000332  00000+0  00000+0 0  9996",
        "tle_line2": "2 41194   0.1638  80.7414 0003605 106.8899   6.4925  1.00270529 36638"
      },
      "geometry": {
        "type": "Point",
        "coordinates": [
          -1.3658198238198973,
          -0.15635384871826288
        ]
      }
    },
    {
      "type": "Feature",
      "properties": {
        "norad_id": 41240,
        "name": "JASON-3",
        "group": "resource",
        "lat": -61.32837828312905,
        "lon": 108.16641331053597,
        "alt_km": 1311.9469069556362,
        "timestamp": "2025-12-10T11:33:53.048648+00:00",
        "meta_object_name": "JASON-3",
        "meta_object_id": "2016-002A",
        "meta_epoch": "2025-12-10T02:37:35.232384",
        "meta_mean_motion": 12.87626372,
        "meta_eccentricity": 0.0007151,
        "meta_inclination": 66.0389,
        "meta_ra_of_asc_node": 163.3542,
        "meta_arg_of_pericenter": 270.643,
        "meta_mean_anomaly": 89.377,
        "meta_ephemeris_type": 0,
        "meta_classification_type": "U",
        "meta_norad_cat_id": 41240,
        "meta_element_set_no": 999,
        "meta_rev_at_epoch": 46290,
        "meta_bstar": 5.8144e-05,
        "meta_mean_motion_dot": -4.8e-07,
        "meta_mean_motion_ddot": 0,
        "tle_line1": "1 41240U 16002A   25344.10943556 -.00000048  00000+0  58144-4 0  9999",
        "tle_line2": "2 41240  66.0389 163.3542 0007151 270.6430  89.3770 12.87626372462904"
      },
      "geometry": {
        "type": "Point",
        "coordinates": [
          108.16641331053597,
          -61.32837828312905
        ]
      }
    },
    {
      "type": "Feature",
      "properties": {
        "norad_id": 41335,
        "name": "SENTINEL-3A",
        "group": "resource",
        "lat": -74.66409497375565,
        "lon": 83.10903965550796,
        "alt_km": 810.6017295961965,
        "timestamp": "2025-12-10T11:33:53.048659+00:00",
        "meta_object_name": "SENTINEL-3A",
        "meta_object_id": "2016-011A",
        "meta_epoch": "2025-12-10T03:30:39.341952",
        "meta_mean_motion": 14.26745004,
        "meta_eccentricity": 9.53e-05,
        "meta_inclination": 98.621,
        "meta_ra_of_asc_node": 49.1925,
        "meta_arg_of_pericenter": 93.502,
        "meta_mean_anomaly": 266.627,
        "meta_ephemeris_type": 0,
        "meta_classification_type": "U",
        "meta_norad_cat_id": 41335,
        "meta_element_set_no": 999,
        "meta_rev_at_epoch": 51110,
        "meta_bstar": 0.00010858,
        "meta_mean_motion_dot": 2.19e-06,
        "meta_mean_motion_ddot": 0,
        "tle_line1": "1 41335U 16011A   25344.14628868  .00000219  00000+0  10858-3 0  9992",
        "tle_line2": "2 41335  98.6210  49.1925 0000953  93.5020 266.6270 14.26745004511100"
      },
      "geometry": {
        "type": "Point",
        "coordinates": [
          83.10903965550796,
          -74.66409497375565
        ]
      }
    }
  ]
}